{"type": "FeatureCollection", "features": [ {"type": "Feature", "properties": {"norad_id": 39122, "name": "EUTELSAT 117 WEST A", "group": "eutelsat", "lat": -0.010560468091205892, "lon": -175.12546658112868, "alt_km": 35783.11947948223, "timestamp": "2025-12-09T14:52:25.837367+00:00", "meta": {"OBJECT_NAME": "EUTELSAT 117 WEST A", "OBJECT_ID": "2013-012A", "EPOCH": "2025-12-09T06:51:25.039008", "MEAN_MOTION": 1.00270667, "ECCENTRICITY": 0.00030775, "INCLINATION": 0.0125, "RA_OF_ASC_NODE": 348.7537, "ARG_OF_PERICENTER": 271.6205, "MEAN_ANOMALY": 163.9567, "EPHEMERIS_TYPE": 0, "CLASSIFICATION_TYPE": "U", "NORAD_CAT_ID": 39122, "ELEMENT_SET_NO": 999, "REV_AT_EPOCH": 4652, "BSTAR": 0, "MEAN_MOTION_DOT": -1.1e-07, "MEAN_MOTION_DDOT": 0}, "tle": {"line1": "1 39122U 13012A   25343.28570647 -.00000011  00000+0  00000+0 0  9991", "line2": "2 39122   0.0125 348.7537 0003077 271.6205 163.9567  1.00270667 46527"}}, "geometry": {"type": "Point", "coordinates": [-175.12546658112868, -0.010560468091205892]}}, {"type": "Feature", "properties": {"norad_id": 39163, "name": "EUTELSAT 7B", "group": "eutelsat", "lat": -0.07613023884609954, "lon": -51.30572727907539, "alt_km": 35766.996215888765, "timestamp": "2025-12-09T14:52:25.837379+00:00", "meta": {"OBJECT_NAME": "EUTELSAT 7B", "OBJECT_ID": "2013-022A", "EPOCH": "2025-12-09T05:02:43.094400", "MEAN_MOTION": 1.0027156, "ECCENTRICITY": 0.0004565, "INCLINATION": 0.0707, "RA_OF_ASC_NODE": 13.9889, "ARG_OF_PERICENTER": 300.4428, "MEAN_ANOMALY": 206.4393, "EPHEMERIS_TYPE": 0, "CLASSIFICATION_TYPE": "U", "NORAD_CAT_ID": 39163, "ELEMENT_SET_NO": 999, "REV_AT_EPOCH": 4605, "BSTAR": 0, "MEAN_MOTION_DOT": 5e-07, "MEAN_MOTION_DDOT": 0}, "tle": {"line1": "1 39163U 13022A   25343.21022100  .00000050  00000+0  00000+0 0  9998", "line2": "2 39163   0.0707  13.9889 0004565 300.4428 206.4393  1.00271560 46051"}}, "geometry": {"type": "Point", "coordinates": [-51.30572727907539, -0.07613023884609954]}}, {"type": "Feature", "properties": {"norad_id": 39612, "name": "EXPRESS-AT1", "group": "eutelsat", "lat": 0.01913904054858941, "lon": -2.243257517153226, "alt_km": 35777.91025650806, "timestamp": "2025-12-09T14:52:25.837392+00:00", "meta": {"OBJECT_NAME": "EXPRESS-AT1", "OBJECT_ID": "2014-010A", "EPOCH": "2025-12-09T03:33:59.092704", "MEAN_MOTION": 1.00291062, "ECCENTRICITY": 8.664e-05, "INCLINATION": 0.015, "RA_OF_ASC_NODE": 294.6508, "ARG_OF_PERICENTER": 21.7051, "MEAN_ANOMALY": 231.2889, "EPHEMERIS_TYPE": 0, "CLASSIFICATION_TYPE": "U", "NORAD_CAT_ID": 39612, "ELEMENT_SET_NO": 999, "REV_AT_EPOCH": 4291, "BSTAR": 0, "MEAN_MOTION_DOT": 7.8e-07, "MEAN_MOTION_DDOT": 0}, "tle": {"line1": "1 39612U 14010A   25343.14860061  .00000078  00000+0  00000+0 0  9993", "line2": "2 39612   0.0150 294.6508 0000866  21.7051 231.2889  1.00291062 42919"}}, "geometry": {"type": "Point", "coordinates": [-2.243257517153226, 0.01913904054858941]}}, {"type": "Feature", "properties": {"norad_id": 39613, "name": "EXPRESS-AT2", "group": "eutelsat", "lat": 0.031440790206477394, "lon": 81.58463471059649, "alt_km": 35792.01342555773, "timestamp": "2025-12-09T14:52:25.837404+00:00", "meta": {"OBJECT_NAME": "EXPRESS-AT2", "OBJECT_ID": "2014-010B", "EPOCH": "2025-12-09T05:40:39.461376", "MEAN_MOTION": 1.00272459, "ECCENTRICITY": 0.00015597, "INCLINATION": 0.0184, "RA_OF_ASC_NODE": 312.6688, "ARG_OF_PERICENTER": 331.8127, "MEAN_ANOMALY": 18.7778, "EPHEMERIS_TYPE": 0, "CLASSIFICATION_TYPE": "U", "NORAD_CAT_ID": 39613, "ELEMENT_SET_NO": 999, "REV_AT_EPOCH": 4259, "BSTAR": 0, "MEAN_MOTION_DOT": -2.79e-06, "MEAN_MOTION_DDOT": 0}, "tle": {"line1": "1 39613U 14010B   25343.23656784 -.00000279  00000+0  00000+0 0  9993", "line2": "2 39613   0.0184 312.6688 0001559 331.8127  18.7778  1.00272459 42594"}}, "geometry": {"type": "Point", "coordinates": [81.58463471059649, 0.031440790206477394]}}, {"type": "Feature", "properties": {"norad_id": 39773, "name": "EUTELSAT 3B", "group": "eutelsat", "lat": -0.049804594144475654, "lon": -55.128411651416734, "alt_km": 35781.440038465866, "timestamp": "2025-12-09T14:52:25.837415+00:00", "meta": {"OBJECT_NAME": "EUTELSAT 3B", "OBJECT_ID": "2014-030A", "EPOCH": "2025-12-09T05:01:35.702400", "MEAN_MOTION": 1.00271348, "ECCENTRICITY": 0.00047582, "INCLINATION": 0.0635, "RA_OF_ASC_NODE": 341.2168, "ARG_OF_PERICENTER": 247.0648, "MEAN_ANOMALY": 288.4276, "EPHEMERIS_TYPE": 0, "CLASSIFICATION_TYPE": "U", "NORAD_CAT_ID": 39773, "ELEMENT_SET_NO": 999, "REV_AT_EPOCH": 4216, "BSTAR": 0, "MEAN_MOTION_DOT": 2.2e-07, "MEAN_MOTION_DDOT": 0}, "tle": {"line1": "1 39773U 14030A   25343.20944100  .00000022  00000+0  00000+0 0  9996", "line2": "2 39773   0.0635 341.2168 0004758 247.0648 288.4276  1.00271348 42161"}}, "geometry": {"type": "Point", "coordinates": [-55.128411651416734, -0.049804594144475654]}}, {"type": "Feature", "properties": {"norad_id": 40425, "name": "EUTELSAT 115 WEST B", "group": "eutelsat", "lat": 0.005338226046564063, "lon": -173.18593155768983, "alt_km": 35787.294954654295, "timestamp": "2025-12-09T14:52:25.837427+00:00", "meta": {"OBJECT_NAME": "EUTELSAT 115 WEST B", "OBJECT_ID": "2015-010B", "EPOCH": "2025-12-09T01:01:30.855936", "MEAN_MOTION": 1.00268138, "ECCENTRICITY": 2.776e-05, "INCLINATION": 0.0085, "RA_OF_ASC_NODE": 146.6018, "ARG_OF_PERICENTER": 300.0024, "MEAN_ANOMALY": 251.9196, "EPHEMERIS_TYPE": 0, "CLASSIFICATION_TYPE": "U", "NORAD_CAT_ID": 40425, "ELEMENT_SET_NO": 999, "REV_AT_EPOCH": 3948, "BSTAR": 0, "MEAN_MOTION_DOT": -2.2e-07, "MEAN_MOTION_DDOT": 0}, "tle": {"line1": "1 40425U 15010B   25343.04271824 -.00000022  00000+0  00000+0 0  9990", "line2": "2 40425   0.0085 146.6018 0000277 300.0024 251.9196  1.00268138 39487"}}, "geometry": {"type": "Point", "coordinates": [-173.18593155768983, 0.005338226046564063]}}, {"type": "Feature", "properties": {"norad_id": 40875, "name": "EUTELSAT 8 WEST B", "group": "eutelsat", "lat": -0.07479567627295289, "lon": -66.24604706519183, "alt_km": 35771.62167876773, "timestamp": "2025-12-09T14:52:25.837439+00:00", "meta": {"OBJECT_NAME": "EUTELSAT 8 WEST B", "OBJECT_ID": "2015-039B", "EPOCH": "2025-12-09T04:58:28.501248", "MEAN_MOTION": 1.00271473, "ECCENTRICITY": 0.0004155, "INCLINATION": 0.0645, "RA_OF_ASC_NODE": 0.0958, "ARG_OF_PERICENTER": 259.4526, "MEAN_ANOMALY": 245.2869, "EPHEMERIS_TYPE": 0, "CLASSIFICATION_TYPE": "U", "NORAD_CAT_ID": 40875, "ELEMENT_SET_NO": 999, "REV_AT_EPOCH": 3775, "BSTAR": 0, "MEAN_MOTION_DOT": -6.4e-07, "MEAN_MOTION_DDOT": 0}, "tle": {"line1": "1 40875U 15039B   25343.20727432 -.00000064  00000+0  00000+0 0  9995", "line2": "2 40875   0.0645   0.0958 0004155 259.4526 245.2869  1.00271473 37754"}}, "geometry": {"type": "Point", "coordinates": [-66.24604706519183, -0.07479567627295289]}}, {"type": "Feature", "properties": {"norad_id": 41310, "name": "EUTELSAT 9B", "group": "eutelsat", "lat": -0.04300513299911791, "lon": -49.23459815544996, "alt_km": 35771.57657170092, "timestamp": "2025-12-09T14:52:25.837451+00:00", "meta": {"OBJECT_NAME": "EUTELSAT 9B", "OBJECT_ID": "2016-005A", "EPOCH": "2025-12-09T05:03:20.534976", "MEAN_MOTION": 1.00272145, "ECCENTRICITY": 0.00048835, "INCLINATION": 0.036, "RA_OF_ASC_NODE": 53.1251, "ARG_OF_PERICENTER": 211.7187, "MEAN_ANOMALY": 258.2085, "EPHEMERIS_TYPE": 0, "CLASSIFICATION_TYPE": "U", "NORAD_CAT_ID": 41310, "ELEMENT_SET_NO": 999, "REV_AT_EPOCH": 3621, "BSTAR": 0, "MEAN_MOTION_DOT": 6.4e-07, "MEAN_MOTION_DDOT": 0}, "tle": {"line1": "1 41310U 16005A   25343.21065434  .00000064  00000+0  00000+0 0  9991", "line2": "2 41310   0.0360  53.1251 0004883 211.7187 258.2085  1.00272145 36211"}}, "geometry": {"type": "Point", "coordinates": [-49.23459815544996, -0.04300513299911791]}}, {"type": "Feature", "properties": {"norad_id": 41382, "name": "EUTELSAT 65 WEST A", "group": "eutelsat", "lat": -0.05790941668820367, "lon": -123.50815186731568, "alt_km": 35775.85963082312, "timestamp": "2025-12-09T14:52:25.837462+00:00", "meta": {"OBJECT_NAME": "EUTELSAT 65 WEST A", "OBJECT_ID": "2016-014A", "EPOCH": "2025-12-09T06:19:18.594624", "MEAN_MOTION": 1.00272937, "ECCENTRICITY": 0.00026539, "INCLINATION": 0.0495, "RA_OF_ASC_NODE": 4.0642, "ARG_OF_PERICENTER": 260.1525, "MEAN_ANOMALY": 203.6598, "EPHEMERIS_TYPE": 0, "CLASSIFICATION_TYPE": "U", "NORAD_CAT_ID": 41382, "ELEMENT_SET_NO": 999, "REV_AT_EPOCH": 3563, "BSTAR": 0, "MEAN_MOTION_DOT": -2.74e-06, "MEAN_MOTION_DDOT": 0}, "tle": {"line1": "1 41382U 16014A   25343.26340966 -.00000274  00000+0  00000+0 0  9995", "line2": "2 41382   0.0495   4.0642 0002653 260.1525 203.6598  1.00272937 35632"}}, "geometry": {"type": "Point", "coordinates": [-123.50815186731568, -0.05790941668820367]}}, {"type": "Feature", "properties": {"norad_id": 41589, "name": "EUTELSAT 117 WEST B", "group": "eutelsat", "lat": 0.005300287394022157, "lon": -175.27822351811304, "alt_km": 35786.48899208832, "timestamp": "2025-12-09T14:52:25.837480+00:00", "meta": {"OBJECT_NAME": "EUTELSAT 117 WEST B", "OBJECT_ID": "2016-038B", "EPOCH": "2025-12-09T01:01:58.310400", "MEAN_MOTION": 1.00271867, "ECCENTRICITY": 3.718e-05, "INCLINATION": 0.0079, "RA_OF_ASC_NODE": 144.6605, "ARG_OF_PERICENTER": 293.2905, "MEAN_ANOMALY": 258.5865, "EPHEMERIS_TYPE": 0, "CLASSIFICATION_TYPE": "U", "NORAD_CAT_ID": 41589, "ELEMENT_SET_NO": 999, "REV_AT_EPOCH": 3475, "BSTAR": 0, "MEAN_MOTION_DOT": -1e-07, "MEAN_MOTION_DDOT": 0}, "tle": {"line1": "1 41589U 16038B   25343.04303600 -.00000010  00000+0  00000+0 0  9998", "line2": "2 41589   0.0079 144.6605 0000371 293.2905 258.5865  1.00271867 34752"}}, "geometry": {"type": "Point", "coordinates": [-175.27822351811304, 0.005300287394022157]}}]}